H1 CPF 01  gfz 2022 06 23 00  6741 terrasarx 
H2 0702601  6201 31698    2022 06 23 00 59 42 2022 06 28 00 00 42   120 1 1  0 0 0
H9
10 0 59756   9342.000000  0    1119215.589    -22868.526  -6803746.372
10 0 59756   9462.000000  0     548737.418   -741638.671  -6833214.078
10 0 59756   9582.000000  0     -43617.461  -1437392.822  -6743529.100
10 0 59756   9702.000000  0    -647082.216  -2097791.914  -6536231.986
10 0 59756   9822.000000  0   -1250482.021  -2711287.175  -6214888.256
10 0 59756   9942.000000  0   -1842436.254  -3267319.870  -5785033.348
10 0 59756  10062.000000  0   -2411568.163  -3756502.103  -5254086.917
10 0 59756  10182.000000  0   -2946721.065  -4170778.529  -4631237.391
10 0 59756  10302.000000  0   -3437177.430  -4503565.031  -3927293.831
10 0 59756  10422.000000  0   -3872874.622  -4749860.029  -3154507.597
10 0 59756  10542.000000  0   -4244614.080  -4906327.027  -2326366.379
10 0 59756  10662.000000  0   -4544258.947  -4971345.307  -1457362.224
10 0 59756  10782.000000  0   -4764914.747  -4945027.171   -562737.600
10 0 59756  10902.000000  0   -4901088.202  -4829200.735    341785.843
10 0 59756  11022.000000  0   -4948819.949  -4627358.129   1240290.796
10 0 59756  11142.000000  0   -4905786.657  -4344568.842   2116954.005
10 0 59756  11262.000000  0   -4771369.536  -3987360.683   2956334.096
10 0 59756  11382.000000  0   -4546688.253  -3563572.071   3743651.193
10 0 59756  11502.000000  0   -4234599.574  -3082179.734   4465053.210
10 0 59756  11622.000000  0   -3839659.727  -2553105.133   5107862.594
10 0 59756  11742.000000  0   -3368053.559  -1987006.589   5660797.403
10 0 59756  11862.000000  0   -2827493.106  -1395062.448   6114166.413
10 0 59756  11982.000000  0   -2227086.117   -788747.768   6460035.646
10 0 59756  12102.000000  0   -1577176.881   -179608.886   6692361.598
10 0 59756  12222.000000  0    -889163.864    420956.388   6807088.977
10 0 59756  12342.000000  0    -175299.432   1001910.291   6802216.727
10 0 59756  12462.000000  0     551527.950   1552777.407   6677831.065
10 0 59756  12582.000000  0    1278025.876   2063833.630   6436104.189
10 0 59756  12702.000000  0    1990740.341   2526277.766   6081257.920
10 0 59756  12822.000000  0    2676304.144   2932383.684   5619495.073
10 0 59756  12942.000000  0    3321689.277   3275632.195   5058898.009
10 0 59756  13062.000000  0    3914457.985   3550819.228   4409291.983
10 0 59756  13182.000000  0    4443004.862   3754137.067   3682078.235
10 0 59756  13302.000000  0    4896792.200   3883230.290   2890039.007
10 0 59756  13422.000000  0    5266566.345   3937220.818   2047110.307
10 0 59756  13542.000000  0    5544551.533   3916702.321   1168134.414
10 0 59756  13662.000000  0    5724616.878   3823704.917    268592.264
10 0 59756  13782.000000  0    5802411.206   3661629.635   -635677.828
10 0 59756  13902.000000  0    5775461.808   3435154.706  -1528767.865
10 0 59756  14022.000000  0    5643235.386   3150116.069  -2394988.267
10 0 59756  14142.000000  0    5407159.355   2813365.868  -3219149.549
10 0 59756  14262.000000  0    5070604.986   2432612.863  -3986832.048
10 0 59756  14382.000000  0    4638832.455   2016248.342  -4684639.832
10 0 59756  14502.000000  0    4118897.364   1573161.284  -5300430.796
10 0 59756  14622.000000  0    3519525.955   1112549.735  -5823519.865
10 0 59756  14742.000000  0    2850960.521    643731.870  -6244855.067
10 0 59756  14862.000000  0    2124777.927    175960.053  -6557162.793
10 0 59756  14982.000000  0    1353687.172   -281757.630  -6755061.591
10 0 59756  15102.000000  0     551308.563   -720826.807  -6835146.695
10 0 59756  15222.000000  0    -268064.607  -1133224.170  -6796041.456
10 0 59756  15342.000000  0   -1089714.219  -1511639.582  -6638417.310
10 0 59756  15462.000000  0   -1898755.297  -1849602.483  -6364984.472
10 0 59756  15582.000000  0   -2680399.970  -2141590.973  -5980449.938
10 0 59756  15702.000000  0   -3420221.954  -2383121.152  -5491444.840
10 0 59756  15822.000000  0   -4104421.177  -2570817.322  -4906422.491
10 0 59756  15942.000000  0   -4720083.856  -2702460.507  -4235523.517
10 0 59756  16062.000000  0   -5255430.902  -2777013.810  -3490410.362
10 0 59756  16182.000000  0   -5700051.168  -2794624.232  -2684072.982
10 0 59756  16302.000000  0   -6045113.576  -2756599.986  -1830607.113
10 0 59756  16422.000000  0   -6283552.122  -2665363.881   -944969.137
10 0 59756  16542.000000  0   -6410219.339  -2524383.060    -42711.336
10 0 59756  16662.000000  0   -6422003.197  -2338076.517    860296.787
10 0 59756  16782.000000  0   -6317904.633  -2111702.526   1748156.121
10 0 59756  16902.000000  0   -6099071.025  -1851228.689   2605227.926
10 0 59756  17022.000000  0   -5768785.904  -1563187.968   3416417.167
10 0 59756  17142.000000  0   -5332417.016  -1254524.594   4167446.068
10 0 59756  17262.000000  0   -4797319.886   -932433.253   4845110.131
10 0 59756  17382.000000  0   -4172704.507   -604196.907   5437509.298
10 0 59756  17502.000000  0   -3469469.017   -277026.798   5934255.251
10 0 59756  17622.000000  0   -2700000.790     42092.989   6326650.247
10 0 59756  17742.000000  0   -1877950.591    346551.562   6607833.452
10 0 59756  17862.000000  0   -1017985.442    630244.592   6772894.531
10 0 59756  17982.000000  0    -135524.904    887694.748   6818953.729
10 0 59756  18102.000000  0     753535.143   1114156.100   6745208.403
10 0 59756  18222.000000  0    1633107.689   1305701.419   6552946.268
10 0 59756  18342.000000  0    2487204.730   1459290.658   6245524.134
10 0 59756  18462.000000  0    3300227.546   1572819.190   5828313.561
10 0 59756  18582.000000  0    4057254.227   1645145.494   5308612.436
10 0 59756  18702.000000  0    4744316.474   1676097.794   4695522.906
10 0 59756  18822.000000  0    5348663.774   1666460.477   3999799.767
10 0 59756  18942.000000  0    5859010.957   1617939.114   3233665.030
10 0 59756  19062.000000  0    6265756.932   1533105.007   2410592.775
10 0 59756  19182.000000  0    6561175.073   1415319.778   1545071.860
10 0 59756  19302.000000  0    6739568.240   1268642.847    652345.244
10 0 59756  19422.000000  0    6797383.567   1097723.511   -251865.289
10 0 59756  19542.000000  0    6733285.587    907680.225  -1151645.304
10 0 59756  19662.000000  0    6548182.348    703969.625  -2031176.856
10 0 59756  19782.000000  0    6245207.641    492248.929  -2875023.333
10 0 59756  19902.000000  0    5829659.063    278236.452  -3668405.685
10 0 59756  20022.000000  0    5308893.922     67573.061  -4397463.771
10 0 59756  20142.000000  0    4692184.965   -134312.022  -5049496.571
10 0 59756  20262.000000  0    3990542.885   -322327.431  -5613176.420
10 0 59756  20382.000000  0    3216510.680   -491835.468  -6078737.251
10 0 59756  20502.000000  0    2383932.030   -638755.815  -6438134.128
10 0 59756  20622.000000  0    1507699.752   -759654.084  -6685169.889
10 0 59756  20742.000000  0     603490.948   -851815.168  -6815591.766
10 0 59756  20862.000000  0    -312510.361   -913299.172  -6827157.191
10 0 59756  20982.000000  0   -1223896.519   -942979.367  -6719667.192
10 0 59756  21102.000000  0   -2114323.260   -940562.288  -6494970.080
10 0 59756  21222.000000  0   -2967796.586   -906589.067  -6156932.025
10 0 59756  21342.000000  0   -3768953.260   -842418.621  -5711377.464
10 0 59756  21462.000000  0   -4503335.909   -750192.784  -5166000.480
10 0 59756  21582.000000  0   -5157656.341   -632783.268  -4530242.814
10 0 59756  21702.000000  0   -5720041.406   -493722.148  -3815141.946
10 0 59756  21822.000000  0   -6180258.626   -337116.359  -3033149.411
10 0 59756  21942.000000  0   -6529914.243   -167547.124  -2197920.107
10 0 59756  22062.000000  0   -6762619.642     10042.220  -1324077.389
10 0 59756  22182.000000  0   -6874122.047    190469.409   -426955.436
10 0 59756  22302.000000  0   -6862391.373    368442.917    477676.467
10 0 59756  22422.000000  0   -6727663.025    538695.469   1373897.345
10 0 59756  22542.000000  0   -6472437.138    696117.567   2245923.132
10 0 59756  22662.000000  0   -6101431.457    835887.793   3078394.168
10 0 59756  22782.000000  0   -5621488.645    953596.601   3856654.090
10 0 59756  22902.000000  0   -5041441.167   1045360.134   4567012.997
10 0 59756  23022.000000  0   -4371938.725   1107921.366   5196990.145
10 0 59756  23142.000000  0   -3625242.892   1138736.018   5735531.670
10 0 59756  23262.000000  0   -2814994.198   1136041.900   6173201.515
10 0 59756  23382.000000  0   -1955955.523   1098909.917   6502342.730
10 0 59756  23502.000000  0   -1063736.520   1027276.560   6717205.338
10 0 59756  23622.000000  0    -154507.147    921956.208   6814039.498
10 0 59756  23742.000000  0     755295.051    784633.689   6791156.214
10 0 59756  23862.000000  0    1649260.804    617837.332   6648954.805
10 0 59756  23982.000000  0    2511303.726    424893.008   6389916.577
10 0 59756  24102.000000  0    3325949.482    209859.479   6018565.326
10 0 59756  24222.000000  0    4078615.906    -22554.224   5541393.362
10 0 59756  24342.000000  0    4755877.755   -267087.872   4966753.752
10 0 59756  24462.000000  0    5345712.346   -518043.570   4304720.034
10 0 59756  24582.000000  0    5837721.389   -769412.141   3566914.691
10 0 59756  24702.000000  0    6223324.954  -1015009.375   2766307.862
10 0 59756  24822.000000  0    6495921.193  -1248619.261   1916988.238
10 0 59756  24942.000000  0    6651007.248  -1464139.819   1033911.259
10 0 59756  25062.000000  0    6686259.887  -1655729.915    132630.585
10 0 59756  25182.000000  0    6601573.027  -1817952.787   -770984.959
10 0 59756  25302.000000  0    6399048.390  -1945910.614  -1661039.972
10 0 59756  25422.000000  0    6082942.690  -2035368.597  -2521900.672
10 0 59756  25542.000000  0    5659570.903  -2082864.454  -3338475.847
10 0 59756  25662.000000  0    5137170.359  -2085800.994  -4096484.026
10 0 59756  25782.000000  0    4525730.296  -2042519.761  -4782702.722
99
